NORAD_CAT_ID,OBJECT_NAME,OBJECT_TYPE,EPOCH,MEAN_MOTION,ECCENTRICITY,INCLINATION,RA_OF_ASC_NODE,ARG_OF_PERICENTER,MEAN_ANOMALY,BSTAR,MEAN_MOTION_DOT,MEAN_MOTION_DDOT,TLE_LINE0,TLE_LINE1,TLE_LINE2,SEMIMAJOR_AXIS,PERIOD,APOGEE,PERIGEE,DECAYED
53893.0,STARLINK-5052,PAYLOAD,2024-05-01 09:41:38,15.08844741,0.0001722,53.2164,124.1425,83.9927,276.1261,6.41e-05,7.32e-06,0.0,0 STARLINK-5052,1 53893U 22119H   24122.40392318  .00000732  00000-0  64100-4 0  9991,2 53893  53.2164 124.1425 0001722  83.9927 276.1261 15.08844741 89442,6917.866,95.437,540.922,538.54,0.0
53893.0,STARLINK-5052,PAYLOAD,2024-05-01 17:38:34,15.08844892,0.0001727,53.2162,122.6557,83.8354,276.2835,4.7176e-05,4.63e-06,0.0,0 STARLINK-5052,1 53893U 22119H   24122.73512213  .00000463  00000-0  47176-4 0  9990,2 53893  53.2162 122.6557 0001727  83.8354 276.2835 15.08844892 89497,6917.865,95.437,540.925,538.536,0.0
53893.0,STARLINK-5052,PAYLOAD,2024-05-02 04:46:16,15.08846042,0.0001755,53.2163,120.5742,84.2965,275.8228,1.2016e-05,-9.7e-07,0.0,0 STARLINK-5052,1 53893U 22119H   24123.19880081 -.00000097  00000-0  12016-4 0  9991,2 53893  53.2163 120.5742 0001755  84.2965 275.8228 15.08846042 89147,6917.862,95.437,540.941,538.513,0.0
53893.0,STARLINK-5052,PAYLOAD,2024-05-02 06:21:39,15.08847067,0.0001783,53.2166,120.2752,90.8899,269.2298,3.048e-05,1.97e-06,0.0,0 STARLINK-5052,1 53893U 22119H   24123.26503881  .00000197  00000-0  30480-4 0  9994,2 53893  53.2166 120.2752 0001783  90.8899 269.2298 15.08847067 89577,6917.859,95.437,540.957,538.49,0.0
53893.0,STARLINK-5052,PAYLOAD,2024-05-03 06:12:26,15.08842648,0.0001731,53.2163,115.815,90.3358,269.7833,2.5021e-05,1.1e-06,0.0,0 STARLINK-5052,1 53893U 22119H   24124.25863924  .00000110  00000-0  25021-4 0  9991,2 53893  53.2163 115.8150 0001731  90.3358 269.7833 15.08842648 89305,6917.872,95.437,540.935,538.54,0.0
53893.0,STARLINK-5052,PAYLOAD,2024-05-04 04:27:51,15.08831902,0.0001613,53.2153,111.652,90.44,269.6777,-4.9421e-05,-1.074e-05,0.0,0 STARLINK-5052,1 53893U 22119H   24125.18600992 -.00001074  00000-0 -49421-4 0  9990,2 53893  53.2153 111.6520 0001613  90.4400 269.6777 15.08831902 89449,6917.905,95.438,540.886,538.654,0.0
53893.0,STARLINK-5052,PAYLOAD,2024-05-05 04:18:38,15.08836897,0.0001613,53.2166,107.1917,91.2356,268.8821,1.3813e-05,-6.8e-07,0.0,0 STARLINK-5052,1 53893U 22119H   24126.17960864 -.00000068  00000-0  13813-4 0  9994,2 53893  53.2166 107.1917 0001613  91.2356 268.8821 15.08836897 89597,6917.89,95.438,540.871,538.639,0.0
53893.0,STARLINK-5052,PAYLOAD,2024-05-05 09:04:47,15.0883856,0.0001607,53.2167,106.3002,90.575,269.5426,3.5096e-05,2.71e-06,0.0,0 STARLINK-5052,1 53893U 22119H   24126.37832721  .00000271  00000-0  35096-4 0  9998,2 53893  53.2167 106.3002 0001607  90.5750 269.5426 15.08838560 90047,6917.885,95.438,540.861,538.638,0.0
53893.0,STARLINK-5052,PAYLOAD,2024-05-06 07:20:11,15.08839587,0.0001595,53.217,102.1374,95.8547,264.2627,0.00011186,1.493e-05,0.0,0 STARLINK-5052,1 53893U 22119H   24127.30568682  .00001493  00000-0  11186-3 0  9994,2 53893  53.2170 102.1374 0001595  95.8547 264.2627 15.08839587 89767,6917.882,95.438,540.85,538.643,0.0
53893.0,STARLINK-5052,PAYLOAD,2024-05-06 15:17:06,15.08841542,0.0001595,53.2175,100.6504,91.8666,268.2509,9.983e-05,1.301e-05,0.0,0 STARLINK-5052,1 53893U 22119H   24127.63688644  .00001301  00000-0  99830-4 0  9992,2 53893  53.2175 100.6504 0001595  91.8666 268.2509 15.08841542 90239,6917.876,95.437,540.844,538.637,0.0
53893.0,STARLINK-5052,PAYLOAD,2024-05-07 07:10:57,15.08848937,0.0001628,53.2176,97.6767,89.7343,270.3836,9.2139e-05,1.179e-05,0.0,0 STARLINK-5052,1 53893U 22119H   24128.29928126  .00001179  00000-0  92139-4 0  9995,2 53893  53.2176  97.6767 0001628  89.7343 270.3836 15.08848937 90334,6917.853,95.437,540.844,538.592,0.0
53893.0,STARLINK-5052,PAYLOAD,2024-05-07 15:07:54,15.08834618,0.0001733,53.2167,96.1892,85.176,274.943,-2.8324e-05,-7.39e-06,0.0,0 STARLINK-5052,1 53893U 22119H   24128.63049432 -.00000739  00000-0 -28324-4 0  9995,2 53893  53.2167  96.1892 0001733  85.1760 274.9430 15.08834618 89965,6917.897,95.438,540.961,538.563,0.0
53893.0,STARLINK-5052,PAYLOAD,2024-05-08 07:01:46,15.08834937,0.0001654,53.2177,93.2139,86.7859,273.3323,-5.5157e-05,-1.166e-05,0.0,0 STARLINK-5052,1 53893U 22119H   24129.29289749 -.00001166  00000-0 -55157-4 0  9994,2 53893  53.2177  93.2139 0001654  86.7859 273.3323 15.08834937 90483,6917.896,95.438,540.905,538.617,0.0
53893.0,STARLINK-5052,PAYLOAD,2024-05-08 14:58:41,15.08842298,0.0001608,53.2176,91.7298,86.6972,273.4204,6.5665e-06,-1.84e-06,0.0,0 STARLINK-5052,1 53893U 22119H   24129.62409120 -.00000184  00000-0  65665-5 0  9992,2 53893  53.2176  91.7298 0001608  86.6972 273.4204 15.08842298 90113,6917.873,95.437,540.851,538.626,0.0
53893.0,STARLINK-5052,PAYLOAD,2024-05-09 03:41:45,15.08850237,0.0001478,53.2164,89.3496,88.2018,271.9144,8.7033e-05,1.098e-05,0.0,0 STARLINK-5052,1 53893U 22119H   24130.15400083  .00001098  00000-0  87033-4 0  9997,2 53893  53.2164  89.3496 0001478  88.2018 271.9144 15.08850237 90193,6917.849,95.437,540.737,538.692,0.0
53893.0,STARLINK-5052,PAYLOAD,2024-05-09 14:49:27,15.08852635,0.0001318,53.2161,87.2692,94.0442,266.0701,5.6173e-05,6.06e-06,0.0,0 STARLINK-5052,1 53893U 22119H   24130.61767821  .00000606  00000-0  56173-4 0  9999,2 53893  53.2161  87.2692 0001318  94.0442 266.0701 15.08852635 90686,6917.842,95.437,540.619,538.795,0.0
53893.0,STARLINK-5052,PAYLOAD,2024-05-10 03:32:33,15.08836402,0.0001474,53.2173,84.8895,97.2769,262.8391,0.00014736,2.058e-05,0.0,0 STARLINK-5052,1 53893U 22119H   24131.14760935  .00002058  00000-0  14736-3 0  9998,2 53893  53.2173  84.8895 0001474  97.2769 262.8391 15.08836402 90343,6917.891,95.438,540.776,538.737,0.0
53893.0,STARLINK-5052,PAYLOAD,2024-05-10 06:43:19,15.08845233,0.0001561,53.2188,84.2949,98.73,261.3869,0.00010308,1.353e-05,0.0,0 STARLINK-5052,1 53893U 22119H   24131.28008588  .00001353  00000-0  10308-3 0  9990,2 53893  53.2188  84.2949 0001561  98.7300 261.3869 15.08845233 90781,6917.864,95.437,540.809,538.65,0.0
53893.0,STARLINK-5052,PAYLOAD,2024-05-11 12:55:35,15.08891606,0.0001447,53.219,78.6471,104.396,255.7193,0.00027838,4.151e-05,0.0,0 STARLINK-5052,1 53893U 22119H   24132.53860472  .00004151  00000-0  27838-3 0  9992,2 53893  53.2190  78.6471 0001447 104.3960 255.7193 15.08891606 90557,6917.723,95.434,540.589,538.587,0.0
53893.0,STARLINK-5052,PAYLOAD,2024-05-11 20:52:33,15.08842936,3.17e-05,53.2191,77.1554,186.3112,173.7877,-2.456e-05,-6.78e-06,0.0,0 STARLINK-5052,1 53893U 22119H   24132.86982949 -.00000678  00000-0 -24560-4 0  9994,2 53893  53.2191  77.1554 0000317 186.3112 173.7877 15.08842936 90604,6917.871,95.437,539.956,539.517,0.0
53893.0,STARLINK-5052,PAYLOAD,2024-05-12 03:14:11,15.08730038,0.0001273,53.2179,75.9675,93.7899,266.3239,-0.0015788,-0.00025251,0.0,0 STARLINK-5052,1 53893U 22119H   24133.13485940 -.00025251  00000-0 -15788-2 0  9998,2 53893  53.2179  75.9675 0001273  93.7899 266.3239 15.08730038 90649,6918.217,95.445,540.962,539.201,0.0
53893.0,STARLINK-5052,PAYLOAD,2024-05-12 12:46:31,15.08738817,0.0001323,53.2188,74.1823,102.4987,257.6154,-0.0012308,-0.00019768,0.0,0 STARLINK-5052,1 53893U 22119H   24133.53231438 -.00019768  00000-0 -12308-2 0  9994,2 53893  53.2188  74.1823 0001323 102.4987 257.6154 15.08738817 90706,6918.19,95.444,540.97,539.139,0.0
53893.0,STARLINK-5052,PAYLOAD,2024-05-12 20:43:27,15.08781401,0.0001072,53.2176,72.6991,112.7118,247.3987,-0.00090511,-0.0001464,0.0,0 STARLINK-5052,1 53893U 22119H   24133.86350927 -.00014640  00000-0 -90511-3 0  9992,2 53893  53.2176  72.6991 0001072 112.7118 247.3987 15.08781401 90755,6918.06,95.441,540.666,539.183,0.0
53893.0,STARLINK-5052,PAYLOAD,2024-05-13 03:04:57,15.08835619,0.0001529,53.2181,71.5122,113.6741,246.4411,-1.5799e-05,-5.39e-06,0.0,0 STARLINK-5052,1 53893U 22119H   24134.12844673 -.00000539  00000-0 -15799-4 0  9996,2 53893  53.2181  71.5122 0001529 113.6741 246.4411 15.08835619 90791,6917.894,95.438,540.817,538.701,0.0
53893.0,STARLINK-5052,PAYLOAD,2024-05-13 12:37:16,15.08843961,0.000151,53.2193,69.7267,106.5028,253.6131,0.00025155,3.718e-05,0.0,0 STARLINK-5052,1 53893U 22119H   24134.52588694  .00003718  00000-0  25155-3 0  9994,2 53893  53.2193  69.7267 0001510 106.5028 253.6131 15.08843961 91274,6917.868,95.437,540.778,538.689,0.0
53893.0,STARLINK-5052,PAYLOAD,2024-05-14 04:31:06,15.08842701,0.0002112,53.2183,66.7517,99.0654,261.0577,0.00074407,0.00011575,0.0,0 STARLINK-5052,1 53893U 22119H   24135.18826732  .00011575  00000-0  74407-3 0  9999,2 53893  53.2183  66.7517 0002112  99.0654 261.0577 15.08842701 90950,6917.872,95.437,541.198,538.276,0.0
53893.0,STARLINK-5052,PAYLOAD,2024-05-15 04:21:51,15.08905639,0.0001221,53.2174,62.2908,109.125,250.9874,0.00047562,7.303e-05,0.0,0 STARLINK-5052,1 53893U 22119H   24136.18184822  .00007303  00000-0  47562-3 0  9993,2 53893  53.2174  62.2908 0001221 109.1250 250.9874 15.08905639 91105,6917.68,95.433,540.389,538.7,0.0
53893.0,STARLINK-5052,PAYLOAD,2024-05-15 05:57:14,15.08908475,0.0001165,53.2172,61.9926,105.9292,254.1829,0.00051764,7.975e-05,0.0,0 STARLINK-5052,1 53893U 22119H   24136.24808474  .00007975  00000-0  51764-3 0  9990,2 53893  53.2172  61.9926 0001165 105.9292 254.1829 15.08908475 91530,6917.671,95.433,540.342,538.73,0.0
53893.0,STARLINK-5052,PAYLOAD,2024-05-15 18:40:21,15.08853983,0.0001248,53.2195,59.614,87.8067,272.3068,-0.00039808,-6.62e-05,0.0,0 STARLINK-5052,1 53893U 22119H   24136.77802231 -.00006620  00000-0 -39808-3 0  9996,2 53893  53.2195  59.6140 0001248  87.8067 272.3068 15.08853983 91199,6917.838,95.437,540.566,538.839,0.0
53893.0,STARLINK-5052,PAYLOAD,2024-05-16 01:01:52,15.0886213,0.0001442,53.2186,58.4246,99.2318,260.8837,-0.00022817,-3.92e-05,0.0,0 STARLINK-5052,1 53893U 22119H   24137.04297416 -.00003920  00000-0 -22817-3 0  9992,2 53893  53.2186  58.4246 0001442  99.2318 260.8837 15.08862130 91230,6917.813,95.436,540.675,538.68,0.0
